{
  "type": "FeatureCollection",
  "features": [
    {"type":"Feature","properties":{"name":"willamette","label":"Willamette Valley, OR (farmland)","note":"HERO: 2024-08-02 catalog says 47.4% cloud, AOI is 1.9%"},
     "geometry":{"type":"Polygon","coordinates":[[[-123.10,44.52],[-123.02,44.52],[-123.02,44.58],[-123.10,44.58],[-123.10,44.52]]]}},
    {"type":"Feature","properties":{"name":"punjab","label":"Ludhiana, Punjab, India (cropland)","note":"HERO: 2024-07-15 catalog says 12.2% cloud, AOI is 82.7%"},
     "geometry":{"type":"Polygon","coordinates":[[[75.80,30.88],[75.88,30.88],[75.88,30.94],[75.80,30.94],[75.80,30.88]]]}},
    {"type":"Feature","properties":{"name":"iowa","label":"Story County, IA (corn/soy)","note":"clean fallback, reliably clear in Aug-Sep"},
     "geometry":{"type":"Polygon","coordinates":[[[-93.72,41.98],[-93.66,41.98],[-93.66,42.03],[-93.72,42.03],[-93.72,41.98]]]}},
    {"type":"Feature","properties":{"name":"po_valley","label":"Po Valley, Italy (agriculture)","note":"good for the date-range demo"},
     "geometry":{"type":"Polygon","coordinates":[[[9.10,45.30],[9.18,45.30],[9.18,45.36],[9.10,45.36],[9.10,45.30]]]}}
  ]
}
